{
  "norad_id": 59837,
  "name": "STARLINK-31927",
  "history": [
    {
      "epoch": "2026-03-28T21:27:10.790496Z",
      "apogee_km": 484.13634753666884,
      "perigee_km": 481.9791879016975,
      "latitude_deg": 3.670270293378014e-05,
      "longitude_deg": 17.819599523686524,
      "height_km": 482.81594083324313,
      "semi_major_axis_km": 6861.194767719183,
      "eccentricity": 0.0001572,
      "inclination_deg": 42.9991,
      "raan_deg": 165.9223,
      "arg_perigee_deg": 270.9864,
      "mean_anomaly_deg": 89.0808,
      "mean_motion_rev_day": 15.27577104
    }
  ]
}