{"fetched_at":"2026-03-29T16:36:15Z","count":15609,"tles":[{"name":"STARLINK-31927","line1":"1 59837U 24097C   26087.89387489 -.00002907  00000+0 -96169-4 0  9997","line2":"2 59837  42.9991 165.9223 0001572 270.9864  89.0808 15.27577104104857","category":"Starlink"}]}